{
  "last_updated": "2026-05-26T06:00:02.855707",
  "satellites": {
    "98592": {
      "name": "DUTHSat-2",
      "norad_id": "98592",
      "tle": "1 64530U 25135C   26145.58188068  .00012252  00000-0  47481-3 0  9995\n2 64530  97.4592 261.5153 0003383 261.2588  98.8267 15.26289075 51481",
      "epoch": "2026-05-25T13:57:54.490752",
      "fetched_at": "2026-05-26T06:00:02.954008",
      "source": "satnogs"
    },
    "98530": {
      "name": "LAMARR",
      "norad_id": "98530",
      "tle": "1 66673U 25276H   26026.90917087  .00034524  00000-0  16680-2 0  9998\n2 66673  97.4301 102.8338 0007597 141.5941 218.5835 15.18529012  8972",
      "epoch": "2026-01-26T21:49:12.363168",
      "fetched_at": "2026-01-28T06:00:02.884758",
      "source": "satnogs",
      "note": "Using previous TLE (fetch/manual failed today)"
    },
    "98529": {
      "name": "DIRAC",
      "norad_id": "98529",
      "tle": "1 66681U 25276R   26026.63281774  .00024563  00000-0  11745-2 0  9993\n2 66681  97.4280 102.5712 0006320 148.4115 211.7500 15.18972786  8932",
      "epoch": "2026-01-26T15:11:15.452736",
      "fetched_at": "2026-01-28T06:00:02.937152",
      "source": "satnogs",
      "note": "Using previous TLE (fetch/manual failed today)"
    },
    "98518": {
      "name": "MICE-1",
      "norad_id": "98518",
      "tle": "1 66684U 25276U   26145.19046651  .00003442  00000-0  16769-3 0  9997\n2 66684  97.4275 219.2039 0007038  79.3961 280.8066 15.18993563 26924",
      "epoch": "2026-05-25T04:34:16.306464",
      "fetched_at": "2026-05-26T06:00:03.117167",
      "source": "satnogs"
    },
    "68416": {
      "name": "PeakSat",
      "norad_id": "68416",
      "tle": "1 68416U 26067A   26145.36986470  .00006903  00000-0  33171-3 0  9993\n2 68416  97.4528 104.2412 0002788  40.3170 319.8270 15.19141544  8481",
      "epoch": "2026-05-25T08:52:36.310080",
      "fetched_at": "2026-05-26T06:00:03.164788",
      "source": "satnogs"
    },
    "98370": {
      "name": "OptiSat",
      "norad_id": "98370",
      "tle": "1 69696U 69696    26089.46895426  .00000000  00000-0  00000-0 0 00004\n2 69696 097.4414 038.3720 0003145 156.7651 191.1423 15.18459822000011",
      "epoch": "2026-03-30T11:15:17.648064",
      "fetched_at": "2026-04-17T12:47:18.541523",
      "source": "manual"
    },
    "68468": {
      "name": "ERMIS-1",
      "norad_id": "68468",
      "tle": "1 68468U 26067BE  26145.37541915  .00008761  00000-0  44278-3 0  9996\n2 68468  97.4535 104.0916 0008432 125.2579 234.9444 15.17269979  8471",
      "epoch": "2026-05-25T09:00:36.214560",
      "fetched_at": "2026-05-26T06:00:03.212926",
      "source": "satnogs"
    },
    "68420": {
      "name": "ERMIS-2",
      "norad_id": "68420",
      "tle": "1 68420U 26067E   26145.63316930  .00010027  00000-0  47819-3 0  9992\n2 68420  97.4462 104.4585 0002019  51.1474 308.9941 15.19284360  8523",
      "epoch": "2026-05-25T15:11:45.827520",
      "fetched_at": "2026-05-26T06:00:03.257439",
      "source": "satnogs"
    },
    "98367": {
      "name": "ERMIS-3",
      "norad_id": "98367",
      "tle": "1 68425U 26067K   26145.38931834  .00004656  00000-0  22885-3 0  9992\n2 68425  97.4572 104.2464 0003365  72.6406 287.5196 15.18523819  8485",
      "epoch": "2026-05-25T09:20:37.104576",
      "fetched_at": "2026-05-26T06:00:03.305339",
      "source": "satnogs"
    },
    "69021": {
      "name": "Helios",
      "norad_id": "69021",
      "tle": "1 69021U 26100AT  26145.65672673  .00008411  00000-0  39712-3 0  9996\n2 69021  97.4052  43.8540 0006634  73.7288 286.4676 15.19667187  3389",
      "epoch": "2026-05-25T15:45:41.189472",
      "fetched_at": "2026-05-26T06:00:03.356290",
      "source": "satnogs"
    },
    "69020": {
      "name": "Selene",
      "norad_id": "69020",
      "tle": "1 69020U 26100AS  26145.65812941  .00008262  00000-0  39117-3 0  9992\n2 69020  97.4068  43.8598 0005978  69.4748 290.7128 15.19577851  3389",
      "epoch": "2026-05-25T15:47:42.381024",
      "fetched_at": "2026-05-26T06:00:03.465301",
      "source": "satnogs"
    }
  },
  "fetch_log": []
}